GLOBALSTAR M045         
1 25676U 99019A   26018.49415528 -.00000082  00000+0  99644-4 0  9995
2 25676  51.9979  51.5927 0000216 171.2181 336.9446 12.27070947219823
GLOBALSTAR M019         
1 25677U 99019B   26018.41413524 -.00000195  00000+0 -10933-2 0  9990
2 25677  51.9844 197.3345 0002205  62.7267 301.5874 12.13880544211289
GLOBALSTAR M044         
1 25678U 99019C   26018.58703117 -.00000094  00000+0 -13651-3 0  9998
2 25678  51.9942 175.1586 0007187  95.4679 341.6540 11.90264161196972
GLOBALSTAR M042         
1 25679U 99019D   26018.64811244 -.00000130  00000+0 -35461-3 0  9991
2 25679  51.9995 162.6951 0003309  44.0896 329.0667 12.22096059211604
GLOBALSTAR M025         
1 25770U 99031A   26018.46534898 -.00000058  00000+0  30173-3 0  9997
2 25770  51.9838  20.5614 0002268 140.6547  30.3438 11.22560811505884
GLOBALSTAR M049         
1 25771U 99031B   26018.52494236 -.00000141  00000+0 -26317-2 0  9994
2 25771  51.9886  66.0076 0002655  31.0481 329.0472 11.12123276141381
GLOBALSTAR M047         
1 25772U 99031C   26018.35460118 -.00000064  00000+0  15366-3 0  9994
2 25772  51.9847  42.8061 0016257 271.6505  88.2439 11.31931924495474
GLOBALSTAR M052         
1 25773U 99031D   26018.55693319 -.00000139  00000+0 -24637-2 0  9992
2 25773  51.9837 171.5807 0003320 147.4968 289.0784 11.15063359502532
